CCSDS_OMM_VERS = 2.0
CREATION_DATE  = 
ORIGINATOR     = 

OBJECT_NAME    = STARLINK-35355
OBJECT_ID      = 2025-259AC
CENTER_NAME    = EARTH
REF_FRAME      = TEME
TIME_SYSTEM    = UTC
MEAN_ELEMENT_THEORY = SGP/SGP4

EPOCH          = 2025-12-10T13:25:01.561440
MEAN_MOTION    = 15.50609670
ECCENTRICITY   = .00043605
INCLINATION    = 43.0057
RA_OF_ASC_NODE = 59.9766
ARG_OF_PERICENTER = 272.1256
MEAN_ANOMALY   = 87.9104

EPHEMERIS_TYPE = 0
CLASSIFICATION_TYPE = U
NORAD_CAT_ID   = 66448
ELEMENT_SET_NO = 999
REV_AT_EPOCH   = 583
BSTAR          = .19215458E-2
MEAN_MOTION_DOT = .114197E-2
MEAN_MOTION_DDOT = 0

CCSDS_OMM_VERS = 2.0
CREATION_DATE  = 
ORIGINATOR     = 

OBJECT_NAME    = STARLINK-34720
OBJECT_ID      = 2025-259AD
CENTER_NAME    = EARTH
REF_FRAME      = TEME
TIME_SYSTEM    = UTC
MEAN_ELEMENT_THEORY = SGP/SGP4

EPOCH          = 2025-12-10T11:51:46.579968
MEAN_MOTION    = 15.50681611
ECCENTRICITY   = .00025267
INCLINATION    = 43.0013
RA_OF_ASC_NODE = 60.3517
ARG_OF_PERICENTER = 262.4662
MEAN_ANOMALY   = 97.5912

EPHEMERIS_TYPE = 0
CLASSIFICATION_TYPE = U
NORAD_CAT_ID   = 66449
ELEMENT_SET_NO = 999
REV_AT_EPOCH   = 571
BSTAR          = .22240918E-2
MEAN_MOTION_DOT = .132863E-2
MEAN_MOTION_DDOT = 0

CCSDS_OMM_VERS = 2.0
CREATION_DATE  = 
ORIGINATOR     = 

OBJECT_NAME    = STARLINK-35334
OBJECT_ID      = 2025-259AE
CENTER_NAME    = EARTH
REF_FRAME      = TEME
TIME_SYSTEM    = UTC
MEAN_ELEMENT_THEORY = SGP/SGP4

EPOCH          = 2025-12-10T13:24:02.373984
MEAN_MOTION    = 15.50613633
ECCENTRICITY   = .00020286
INCLINATION    = 43.0030
RA_OF_ASC_NODE = 59.9713
ARG_OF_PERICENTER = 266.8420
MEAN_ANOMALY   = 93.2208

EPHEMERIS_TYPE = 0
CLASSIFICATION_TYPE = U
NORAD_CAT_ID   = 66450
ELEMENT_SET_NO = 999
REV_AT_EPOCH   = 583
BSTAR          = .21724597E-2
MEAN_MOTION_DOT = .129395E-2
MEAN_MOTION_DDOT = 0

CCSDS_OMM_VERS = 2.0
CREATION_DATE  = 
ORIGINATOR     = 

OBJECT_NAME    = VIASAT-3 F2
OBJECT_ID      = 2025-261A
CENTER_NAME    = EARTH
REF_FRAME      = TEME
TIME_SYSTEM    = UTC
MEAN_ELEMENT_THEORY = SGP/SGP4

EPOCH          = 2025-12-08T12:11:15.383616
MEAN_MOTION    = 2.19142646
ECCENTRICITY   = .22792154
INCLINATION    = 5.4570
RA_OF_ASC_NODE = 292.6501
ARG_OF_PERICENTER = 190.5469
MEAN_ANOMALY   = 204.5187

EPHEMERIS_TYPE = 0
CLASSIFICATION_TYPE = U
NORAD_CAT_ID   = 66454
ELEMENT_SET_NO = 999
REV_AT_EPOCH   = 55
BSTAR          = 0
MEAN_MOTION_DOT = -.81E-6
MEAN_MOTION_DDOT = 0

CCSDS_OMM_VERS = 2.0
CREATION_DATE  = 
ORIGINATOR     = 

OBJECT_NAME    = ATLAS 5 CENTAUR R/B
OBJECT_ID      = 2025-261B
CENTER_NAME    = EARTH
REF_FRAME      = TEME
TIME_SYSTEM    = UTC
MEAN_ELEMENT_THEORY = SGP/SGP4

EPOCH          = 2025-12-10T08:02:25.152576
MEAN_MOTION    = 2.28259711
ECCENTRICITY   = .23295014
INCLINATION    = 6.1488
RA_OF_ASC_NODE = 291.8570
ARG_OF_PERICENTER = 186.0008
MEAN_ANOMALY   = 328.6826

EPHEMERIS_TYPE = 0
CLASSIFICATION_TYPE = U
NORAD_CAT_ID   = 66455
ELEMENT_SET_NO = 999
REV_AT_EPOCH   = 59
BSTAR          = 0
MEAN_MOTION_DOT = -.8E-6
MEAN_MOTION_DDOT = 0

CCSDS_OMM_VERS = 2.0
CREATION_DATE  = 
ORIGINATOR     = 

OBJECT_NAME    = STARLINK-35643
OBJECT_ID      = 2025-262A
CENTER_NAME    = EARTH
REF_FRAME      = TEME
TIME_SYSTEM    = UTC
MEAN_ELEMENT_THEORY = SGP/SGP4

EPOCH          = 2025-12-10T16:00:01.999584
MEAN_MOTION    = 15.40610325
ECCENTRICITY   = .00013397
INCLINATION    = 43.0001
RA_OF_ASC_NODE = 83.5588
ARG_OF_PERICENTER = 278.2779
MEAN_ANOMALY   = 241.0706

EPHEMERIS_TYPE = 0
CLASSIFICATION_TYPE = U
NORAD_CAT_ID   = 66456
ELEMENT_SET_NO = 999
REV_AT_EPOCH   = 530
BSTAR          = .29575809E-2
MEAN_MOTION_DOT = .124911E-2
MEAN_MOTION_DDOT = 0

CCSDS_OMM_VERS = 2.0
CREATION_DATE  = 
ORIGINATOR     = 

OBJECT_NAME    = STARLINK-35466
OBJECT_ID      = 2025-262B
CENTER_NAME    = EARTH
REF_FRAME      = TEME
TIME_SYSTEM    = UTC
MEAN_ELEMENT_THEORY = SGP/SGP4

EPOCH          = 2025-12-10T16:00:01.999584
MEAN_MOTION    = 15.40606969
ECCENTRICITY   = .00012101
INCLINATION    = 43.0000
RA_OF_ASC_NODE = 83.4980
ARG_OF_PERICENTER = 294.1450
MEAN_ANOMALY   = 250.0893

EPHEMERIS_TYPE = 0
CLASSIFICATION_TYPE = U
NORAD_CAT_ID   = 66457
ELEMENT_SET_NO = 999
REV_AT_EPOCH   = 530
BSTAR          = .32507131E-2
MEAN_MOTION_DOT = .137536E-2
MEAN_MOTION_DDOT = 0

CCSDS_OMM_VERS = 2.0
CREATION_DATE  = 
ORIGINATOR     = 

OBJECT_NAME    = STARLINK-35684
OBJECT_ID      = 2025-262C
CENTER_NAME    = EARTH
REF_FRAME      = TEME
TIME_SYSTEM    = UTC
MEAN_ELEMENT_THEORY = SGP/SGP4

EPOCH          = 2025-12-10T14:00:03.000384
MEAN_MOTION    = 15.40660553
ECCENTRICITY   = .00011599
INCLINATION    = 42.9998
RA_OF_ASC_NODE = 84.0076
ARG_OF_PERICENTER = 293.3420
MEAN_ANOMALY   = 135.6318

EPHEMERIS_TYPE = 0
CLASSIFICATION_TYPE = U
NORAD_CAT_ID   = 66458
ELEMENT_SET_NO = 999
REV_AT_EPOCH   = 529
BSTAR          = .1471515E-2
MEAN_MOTION_DOT = .61582E-3
MEAN_MOTION_DDOT = 0

CCSDS_OMM_VERS = 2.0
CREATION_DATE  = 
ORIGINATOR     = 

OBJECT_NAME    = STARLINK-35449
OBJECT_ID      = 2025-262D
CENTER_NAME    = EARTH
REF_FRAME      = TEME
TIME_SYSTEM    = UTC
MEAN_ELEMENT_THEORY = SGP/SGP4

EPOCH          = 2025-12-10T14:00:03.000384
MEAN_MOTION    = 15.40630071
ECCENTRICITY   = .00012811
INCLINATION    = 43.0000
RA_OF_ASC_NODE = 83.9478
ARG_OF_PERICENTER = 266.1536
MEAN_ANOMALY   = 187.8173

EPHEMERIS_TYPE = 0
CLASSIFICATION_TYPE = U
NORAD_CAT_ID   = 66459
ELEMENT_SET_NO = 999
REV_AT_EPOCH   = 529
BSTAR          = .18157241E-2
MEAN_MOTION_DOT = .76127E-3
MEAN_MOTION_DDOT = 0

CCSDS_OMM_VERS = 2.0
CREATION_DATE  = 
ORIGINATOR     = 

OBJECT_NAME    = STARLINK-35424
OBJECT_ID      = 2025-262E
CENTER_NAME    = EARTH
REF_FRAME      = TEME
TIME_SYSTEM    = UTC
MEAN_ELEMENT_THEORY = SGP/SGP4

EPOCH          = 2025-12-10T14:00:03.000384
MEAN_MOTION    = 15.40733122
ECCENTRICITY   = .00014449
INCLINATION    = 42.9999
RA_OF_ASC_NODE = 83.9167
ARG_OF_PERICENTER = 266.0784
MEAN_ANOMALY   = 200.3011

EPHEMERIS_TYPE = 0
CLASSIFICATION_TYPE = U
NORAD_CAT_ID   = 66460
ELEMENT_SET_NO = 999
REV_AT_EPOCH   = 529
BSTAR          = -.23631979E-2
MEAN_MOTION_DOT = -.97872E-3
MEAN_MOTION_DDOT = 0

CCSDS_OMM_VERS = 2.0
CREATION_DATE  = 
ORIGINATOR     = 

OBJECT_NAME    = STARLINK-35132
OBJECT_ID      = 2025-262F
CENTER_NAME    = EARTH
REF_FRAME      = TEME
TIME_SYSTEM    = UTC
MEAN_ELEMENT_THEORY = SGP/SGP4

EPOCH          = 2025-12-10T14:00:03.000384
MEAN_MOTION    = 15.40804853
ECCENTRICITY   = .00015974
INCLINATION    = 43.0001
RA_OF_ASC_NODE = 83.8872
ARG_OF_PERICENTER = 280.8883
MEAN_ANOMALY   = 197.9201

EPHEMERIS_TYPE = 0
CLASSIFICATION_TYPE = U
NORAD_CAT_ID   = 66461
ELEMENT_SET_NO = 999
REV_AT_EPOCH   = 529
BSTAR          = -.62501543E-2
MEAN_MOTION_DOT = -.253786E-2
MEAN_MOTION_DDOT = 0

CCSDS_OMM_VERS = 2.0
CREATION_DATE  = 
ORIGINATOR     = 

OBJECT_NAME    = STARLINK-35499
OBJECT_ID      = 2025-262G
CENTER_NAME    = EARTH
REF_FRAME      = TEME
TIME_SYSTEM    = UTC
MEAN_ELEMENT_THEORY = SGP/SGP4

EPOCH          = 2025-12-10T14:00:03.000384
MEAN_MOTION    = 15.40623878
ECCENTRICITY   = .00013602
INCLINATION    = 43.0000
RA_OF_ASC_NODE = 83.8542
ARG_OF_PERICENTER = 280.3529
MEAN_ANOMALY   = 210.9442

EPHEMERIS_TYPE = 0
CLASSIFICATION_TYPE = U
NORAD_CAT_ID   = 66462
ELEMENT_SET_NO = 999
REV_AT_EPOCH   = 529
BSTAR          = .16741574E-2
MEAN_MOTION_DOT = .70097E-3
MEAN_MOTION_DDOT = 0

