STARLINK-35355          
1 66448U 25259AC  25344.55904585  .00114197  00000+0  19215-2 0  9992
2 66448  43.0057  59.9766 0004360 272.1256  87.9104 15.50609670  5833
STARLINK-34720          
1 66449U 25259AD  25344.49428912  .00132863  00000+0  22241-2 0  9994
2 66449  43.0013  60.3517 0002526 262.4662  97.5912 15.50681611  5717
STARLINK-35334          
1 66450U 25259AE  25344.55836081  .00129395  00000+0  21725-2 0  9995
2 66450  43.0030  59.9713 0002028 266.8420  93.2208 15.50613633  5830
VIASAT-3 F2             
1 66454U 25261A   25342.50781694 -.00000081  00000+0  00000+0 0  9995
2 66454   5.4570 292.6501 2279215 190.5469 204.5187  2.19142646   557
ATLAS 5 CENTAUR R/B     
1 66455U 25261B   25344.33501334 -.00000080  00000+0  00000+0 0  9999
2 66455   6.1488 291.8570 2329501 186.0008 328.6826  2.28259711   598
STARLINK-35643          
1 66456U 25262A   25344.66668981  .00124911  00000+0  29576-2 0  9990
2 66456  43.0001  83.5588 0001339 278.2779 241.0706 15.40610325  5307
STARLINK-35466          
1 66457U 25262B   25344.66668981  .00137536  00000+0  32507-2 0  9996
2 66457  43.0000  83.4980 0001210 294.1450 250.0893 15.40606969  5309
STARLINK-35684          
1 66458U 25262C   25344.58336806  .00061582  00000+0  14715-2 0  9994
2 66458  42.9998  84.0076 0001159 293.3420 135.6318 15.40660553  5294
STARLINK-35449          
1 66459U 25262D   25344.58336806  .00076127  00000+0  18157-2 0  9990
2 66459  43.0000  83.9478 0001281 266.1536 187.8173 15.40630071  5297
STARLINK-35424          
1 66460U 25262E   25344.58336806 -.00097872  00000+0 -23632-2 0  9998
2 66460  42.9999  83.9167 0001444 266.0784 200.3011 15.40733122  5297
STARLINK-35132          
1 66461U 25262F   25344.58336806 -.00253786  00000+0 -62502-2 0  9996
2 66461  43.0001  83.8872 0001597 280.8883 197.9201 15.40804853  5291
STARLINK-35499          
1 66462U 25262G   25344.58336806  .00070097  00000+0  16742-2 0  9992
2 66462  43.0000  83.8542 0001360 280.3529 210.9442 15.40623878  5294
